[ {"name": "STARLINK-30274", "line1": "1 57672U 23124K   26127.78052024  .00000465  00000+0  27819-4 0  9990", "line2": "2 57672  53.1608 292.4789 0001121  82.0736 278.0393 15.30195194152619"}, {"name": "STARLINK-30316", "line1": "1 57673U 23124L   26127.86692305  .00000635  00000+0  33552-4 0  9992", "line2": "2 57673  53.1610 292.2042 0001002  90.1104 270.0012 15.30196194152622"}, {"name": "STARLINK-30313", "line1": "1 57676U 23124P   26127.71837279  .00001351  00000+0  57761-4 0  9994", "line2": "2 57676  53.1602 292.8011 0001260  94.9457 265.1688 15.30189656152604"}, {"name": "STARLINK-30303", "line1": "1 57677U 23124Q   26127.87104260  .00000857  00000+0  41046-4 0  9998", "line2": "2 57677  53.1601 291.5877 0000994  82.7478 277.3635 15.30195542152632"}, {"name": "STARLINK-30320", "line1": "1 57678U 23124R   26127.83471215  .00001936  00000+0  77461-4 0  9991", "line2": "2 57678  53.1605 279.3261 0001254  82.6307 277.4836 15.30211626152803"}, {"name": "STARLINK-30321", "line1": "1 57679U 23124S   26127.75097085  .00000331  00000+0  23289-4 0  9999", "line2": "2 57679  53.1604 292.2614 0000880 103.5411 256.5688 15.30188032152618"}, {"name": "STARLINK-30283", "line1": "1 57680U 23124T   26127.72469924 -.00001436  00000+0 -36376-4 0  9993", "line2": "2 57680  53.1603 292.7766 0001075  85.2050 274.9073 15.30185010152608"}, {"name": "STARLINK-30273", "line1": "1 57681U 23124U   26127.94537661  .00002574  00000+0  94608-4 0  9996", "line2": "2 57681  53.1612 291.7448 0000688  88.1295 271.9785 15.31719722152631"}, {"name": "STARLINK-30297", "line1": "1 57682U 23124V   26127.72154397  .00001746  00000+0  71106-4 0  9992", "line2": "2 57682  53.1602 292.8206 0001095  87.9060 272.2066 15.30181525152601"}, {"name": "STARLINK-30295", "line1": "1 57683U 23124W   26127.73419035 -.00000973  00000+0 -20738-4 0  9995", "line2": "2 57683  53.1613 292.8153 0001365  79.3751 280.7404 15.30185215152607"}, {"name": "STARLINK-30288", "line1": "1 57698U 23129A   26128.09660407  .00001608  00000+0  67996-4 0  9998", "line2": "2 57698  43.0052 142.7763 0001578 263.0148  97.0524 15.27564893149760"}, {"name": "STARLINK-30347", "line1": "1 57699U 23129B   26128.05552886 -.00000145  00000+0  42543-5 0  9994", "line2": "2 57699  43.0035 131.4026 0000918 299.0086  61.0674 15.27576483149895"}, {"name": "STARLINK-30332", "line1": "1 57700U 23129C   26128.05593843 -.00003476  00000+0 -11691-3 0  9994", "line2": "2 57700  43.0001 150.1354 0001871 256.8704 103.1939 15.27554815149538"}, {"name": "STARLINK-30345", "line1": "1 57701U 23129D   26128.06062068  .00000875  00000+0  41323-4 0  9990", "line2": "2 57701  43.0014 142.5240 0001515 272.0013  88.0665 15.27572615149625"}, {"name": "STARLINK-30333", "line1": "1 57702U 23129E   26128.30289079  .00000713  00000+0  35448-4 0  9993", "line2": "2 57702  43.0020 140.9016 0001274 270.2493  89.8213 15.27576667149809"}, {"name": "STARLINK-30336", "line1": "1 57703U 23129F   26128.19781891  .00001747  00000+0  73014-4 0  9999", "line2": "2 57703  43.0015 141.8336 0001357 271.0311  89.0386 15.27572381149643"}, {"name": "STARLINK-30346", "line1": "1 57704U 23129G   26127.52596618  .00000535  00000+0  28987-4 0  9990", "line2": "2 57704  43.0018 145.3900 0001415 262.7317  97.3374 15.27575772149546"}, {"name": "STARLINK-30327", "line1": "1 57707U 23129K   26127.86660373  .00013567  00000+0  42258-3 0  9995", "line2": "2 57707  42.9973 109.6419 0023974 109.4696 250.8750 15.32879009149995"}, {"name": "STARLINK-30315", "line1": "1 57708U 23129L   26128.06320967  .00005720  00000+0  21727-3 0  9991", "line2": "2 57708  43.0009 142.5373 0001736 273.6980  86.3673 15.27571775149769"}, {"name": "STARLINK-30287", "line1": "1 57709U 23129M   26128.05291718  .00001853  00000+0  76870-4 0  9995", "line2": "2 57709  43.0018 142.4628 0001378 277.4389  82.6306 15.27565419149769"}, {"name": "STARLINK-30335", "line1": "1 57710U 23129N   26128.05676343  .00000904  00000+0  42358-4 0  9998", "line2": "2 57710  43.0011 142.4892 0001328 271.6548  88.4151 15.27577939149767"}, {"name": "STARLINK-30318", "line1": "1 57711U 23129P   26127.52212040 -.00000514  00000+0 -91578-5 0  9998", "line2": "2 57711  43.0024 145.3462 0001615 267.3880  92.6787 15.27572484149545"}, {"name": "STARLINK-30348", "line1": "1 57712U 23129Q   26128.07475725  .00011826  00000+0  43820-3 0  9992", "line2": "2 57712  43.0006 142.6242 0001060 280.5440  79.5292 15.27608678149769"}, {"name": "STARLINK-30349", "line1": "1 57713U 23129R   26128.01707485  .00002160  00000+0  88000-4 0  9999", "line2": "2 57713  43.0016 143.0425 0000932 267.2479  92.8266 15.27581119149613"}, {"name": "STARLINK-30341", "line1": "1 57714U 23129S   26128.06139851  .00001903  00000+0  78680-4 0  9998", "line2": "2 57714  42.9992 145.9126 0000946 256.1075 103.9671 15.27573002149726"}, {"name": "STARLINK-30300", "line1": "1 57715U 23129T   26127.74396652  .00000296  00000+0  20287-4 0  9991", "line2": "2 57715  43.0027 144.4403 0001061 281.0654  79.0079 15.27575535149716"}, {"name": "STARLINK-30281", "line1": "1 57716U 23129U   26128.09274353  .00000354  00000+0  22401-4 0  9999", "line2": "2 57716  43.0048 142.7498 0001151 273.4828  86.5892 15.27574777149626"}, {"name": "STARLINK-30325", "line1": "1 57717U 23129V   26128.07861382  .00002049  00000+0  84001-4 0  9999", "line2": "2 57717  43.0034 142.6467 0001247 265.4744  94.5965 15.27567907149763"}, {"name": "STARLINK-30338", "line1": "1 57718U 23129W   26128.08888761  .00001538  00000+0  65384-4 0  9996", "line2": "2 57718  43.0039 142.7187 0001212 271.6051  88.4661 15.27580506149766"}, {"name": "STARLINK-30334", "line1": "1 57719U 23129X   26128.08504906  .00003847  00000+0  14934-3 0  9992", "line2": "2 57719  43.0043 142.6924 0001163 268.1723  91.8996 15.27562077149618"}, {"name": "STARLINK-30375", "line1": "1 57732U 23131A   26128.20944848  .00007149  00000+0  26901-3 0  9993", "line2": "2 57732  43.0035 181.4640 0001574 259.3902 100.6773 15.27587979149202"}, {"name": "STARLINK-30310", "line1": "1 57733U 23131B   26128.28174395  .00003391  00000+0  13600-3 0  9991", "line2": "2 57733  43.0017 203.2760 0001334 252.6543 107.4162 15.26753109148957"}, {"name": "STARLINK-30365", "line1": "1 57734U 23131C   26128.24617925  .00006856  00000+0  25845-3 0  9992", "line2": "2 57734  43.0031 196.1841 0001814 275.5087  84.5558 15.27576896149024"}, {"name": "STARLINK-30371", "line1": "1 57735U 23131D   26128.26963066  .00004388  00000+0  17319-3 0  9990", "line2": "2 57735  43.0043 203.1903 0001548 277.6309  82.4366 15.26733271148945"}, {"name": "STARLINK-30352", "line1": "1 57736U 23131E   26128.27232650  .00003286  00000+0  13213-3 0  9995", "line2": "2 57736  43.0045 203.2108 0001545 260.1079  99.9598 15.26742324148943"}, {"name": "STARLINK-30344", "line1": "1 57737U 23131F   26128.25129216  .00002999  00000+0  21669-3 0  9991", "line2": "2 57737  43.0014 206.4759 0001834 306.5956  53.4719 15.05961906148909"}, {"name": "STARLINK-30351", "line1": "1 57738U 23131G   26128.22175303  .00003318  00000+0  13006-3 0  9999", "line2": "2 57738  43.0018 196.0378 0001314 261.8505  98.2198 15.27571184149022"}, {"name": "STARLINK-30242", "line1": "1 57739U 23131H   26128.13442406 -.00004104  00000+0 -13971-3 0  9998", "line2": "2 57739  43.0001 167.9373 0001513 272.6052  87.4627 15.27572129149347"}, {"name": "STARLINK-30331", "line1": "1 57740U 23131J   26127.98848716  .00000051  00000+0  11380-4 0  9994", "line2": "2 57740  43.0020 124.5127 0001395 274.9279  85.1414 15.27573706149846"}, {"name": "STARLINK-30364", "line1": "1 57741U 23131K   26128.21919928  .00001317  00000+0  57390-4 0  9993", "line2": "2 57741  43.0005 196.0134 0002083 287.1657  72.8967 15.27565882149025"}, {"name": "STARLINK-30308", "line1": "1 57742U 23131L   26127.91279690 -.00013650  00000+0 -48698-3 0  9990", "line2": "2 57742  43.0046 198.0123 0002188 251.8369 108.2244 15.27605595148987"}, {"name": "STARLINK-30361", "line1": "1 57743U 23131M   26128.22562055  .00003687  00000+0  14349-3 0  9999", "line2": "2 57743  43.0009 196.0631 0001638 261.5206  98.5460 15.27569819149010"}, {"name": "STARLINK-30363", "line1": "1 57744U 23131N   26128.16976611  .00002511  00000+0  10078-3 0  9990", "line2": "2 57744  43.0033 182.0270 0001446 257.7407 102.3282 15.27569230149180"}, {"name": "STARLINK-30362", "line1": "1 57745U 23131P   26128.26929423 -.00000243  00000+0  70452-6 0  9997", "line2": "2 57745  43.0008 196.3782 0001870 265.0879  94.9759 15.27577345149029"}, {"name": "STARLINK-30350", "line1": "1 57746U 23131Q   26127.65175702  .00000946  00000+0  43882-4 0  9997", "line2": "2 57746  43.0022 196.0784 0001436 269.9838  90.0850 15.27582820148977"}, {"name": "STARLINK-30307", "line1": "1 57747U 23131R   26128.25131032  .00006055  00000+0  22935-3 0  9995", "line2": "2 57747  43.0019 196.2476 0001725 262.9291  97.1365 15.27583880149024"}, {"name": "STARLINK-30356", "line1": "1 57748U 23131S   26128.21275650  .00002126  00000+0  86773-4 0  9993", "line2": "2 57748  43.0015 195.9623 0001338 266.7440  93.3259 15.27578169149023"}, {"name": "STARLINK-30366", "line1": "1 57749U 23131T   26128.27073668  .00010510  00000+0  41099-3 0  9992", "line2": "2 57749  43.0010 198.9519 0001631 277.1615  82.9051 15.25913146148997"}, {"name": "STARLINK-30357", "line1": "1 57750U 23131U   26128.28225689  .00004602  00000+0  18121-3 0  9992", "line2": "2 57750  43.0022 203.2818 0001596 267.3120  92.7549 15.26725524148933"}, {"name": "STARLINK-30370", "line1": "1 57751U 23131V   26128.17085854  .00011085  00000+0  38497-3 0  9990", "line2": "2 57751  42.9987 181.2034 0001339 349.7152  10.3673 15.29786930149196"}, {"name": "STARLINK-30368", "line1": "1 57752U 23131W   26128.25751036  .00058729  00000+0  21529-2 0  9995", "line2": "2 57752  43.0026 196.2621 0001222 285.0292  75.0424 15.27179118149025"}, {"name": "STARLINK-30343", "line1": "1 57753U 23131X   26128.27694054  .00002447  00000+0  10084-3 0  9995", "line2": "2 57753  42.9992 203.2400 0001342 244.6783 115.3929 15.26748347148942"}]